STARLINK-1350           
1 45535U 20025E   26068.27028762  .00014967  00000+0  42940-3 0  9995
2 45535  53.0734  35.1149 0002215  70.5154 289.6087 15.36101991326097
TRANSPORTER-12 OBJECT AY
1 62655U 25009AY  26068.21886106  .00029789  00000+0  83879-3 0  9996
2 62655  97.4067 153.6184 0000836 214.0220 146.0970 15.36411450 63821
