[{"OBJECT_NAME":"STARLINK-1350","OBJECT_ID":"2020-025E","EPOCH":"2026-03-09T06:29:12.850368","MEAN_MOTION":15.36101991,"ECCENTRICITY":0.00022158,"INCLINATION":53.0734,"RA_OF_ASC_NODE":35.1149,"ARG_OF_PERICENTER":70.5154,"MEAN_ANOMALY":289.6087,"EPHEMERIS_TYPE":0,"CLASSIFICATION_TYPE":"U","NORAD_CAT_ID":45535,"ELEMENT_SET_NO":999,"REV_AT_EPOCH":32609,"BSTAR":0.00042940249,"MEAN_MOTION_DOT":0.00014967,"MEAN_MOTION_DDOT":0},{"OBJECT_NAME":"TRANSPORTER-12 OBJECT AY","OBJECT_ID":"2025-009AY","EPOCH":"2026-03-09T05:15:09.595584","MEAN_MOTION":15.3641145,"ECCENTRICITY":8.363e-5,"INCLINATION":97.4067,"RA_OF_ASC_NODE":153.6184,"ARG_OF_PERICENTER":214.022,"MEAN_ANOMALY":146.097,"EPHEMERIS_TYPE":0,"CLASSIFICATION_TYPE":"U","NORAD_CAT_ID":62655,"ELEMENT_SET_NO":999,"REV_AT_EPOCH":6382,"BSTAR":0.00083878699,"MEAN_MOTION_DOT":0.00029789,"MEAN_MOTION_DDOT":0}]
